1;Андорра,Андоррe,Андорру,Андора,Андору,Андоре;{"ID": 1,"nameen": "Andorra","namesc": "Андоррe","name": "Андорра","country": "AD","lat": 42.546245,"lon": 1.601554}
2;Объединенные Арабские Эмираты,Объединенных Арабских Эмиратах,Объединенных Арабских Эмиратов,Эмираты,Эмиратов,Эмиратах,Арабские Эмираты,Арабских Эмиратов,Арабских Эмиратах;{"ID": 2,"nameen": "United Arab Emirates","namesc": "Объединенных Арабских Эмиратах","name": "Объединенные Арабские Эмираты","country": "AE","lat": 23.424076,"lon": 53.847818}
3;Афганистан,Афганистане,Афганистау,Авганистан,Авганистану,Авганистане;{"ID": 3,"nameen": "Afghanistan","namesc": "Афганистане","name": "Афганистан","country": "AF","lat": 33.93911,"lon": 67.709953}
4;Антигуа и Барбуда,Антигуа и Барбуде,Антигуа и Барбуда,Антигуа,Барбуда,Антигуу,Барбуду,Антигуе,Барбуде,Барбудах,Барбудов;{"ID": 4,"nameen": "Antigua and Barbuda","namesc": "Антигуа и Барбуде","name": "Антигуа и Барбуда","country": "AG","lat": 17.060816,"lon": -61.796428}
5;Ангилья,Ангилье,Ангилью,Ангелью,Ангелью,Ангелья,Ангелье,Ангельи,Ангильи,Ангильях,Ангельях;{"ID": 5,"nameen": "Anguilla","namesc": "Ангилье","name": "Ангилья","country": "AI","lat": 18.220554,"lon": -63.068615}
6;Албания,Албании,Албанию,Албанью,Албанья,Албаньи,Албанье;{"ID": 6,"nameen": "Albania","namesc": "Албании","name": "Албания","country": "AL","lat": 41.153332,"lon": 20.168331}
7;Армения,Армении,Армению,Арменья,Арменью,Арменье,Арменьи;{"ID": 7,"nameen": "Armenia","namesc": "Армении","name": "Армения","country": "AM","lat": 40.069099,"lon": 45.038189}
8;Нидерландские Антильские острова,Нидерландских Антильских островах,Нидерландских Антильских островов,Антильские острова,Антильских островах,Антильских островов;{"ID": 8,"nameen": "Netherlands Antilles","namesc": "Нидерландских Антильских островах","name": "Нидерландские Антильские острова","country": "AN","lat": 12.226079,"lon": -69.060087}
9;Ангола,Анголе,Анголу,Анголи,Онголи,Онголу,Онгола,Онголи;{"ID": 9,"nameen": "Angola","namesc": "Анголе","name": "Ангола","country": "AO","lat": -11.202692,"lon": 17.873887}
10;Антарктика,Антарктике,Антарктику,Онтарктику,Онтарктика,Онтарктике;{"ID": 10,"nameen": "Antarctica","namesc": "Антарктике","name": "Антарктика","country": "AQ","lat": -75.250973,"lon": -0.071389}
11;Аргентина,Аргентине,Аргентину;{"ID": 11,"nameen": "Argentina","namesc": "Аргентине","name": "Аргентина","country": "AR","lat": -38.416097,"lon": -63.616672}
12;Американское Самоа,Американском Самоа,Американских Самоа,Самоа;{"ID": 12,"nameen": "American Samoa","namesc": "Американском Самоа","name": "Американское Самоа","country": "AS","lat": -14.270972,"lon": -170.132217}
13;Австрия,Австрии,Австрию,Австрею,Австрея,Австреи;{"ID": 13,"nameen": "Austria","namesc": "Австрии","name": "Австрия","country": "AT","lat": 47.516231,"lon": 14.550072}
14;Австралия,Австралии,Австралию,Австралею,Австралея,Австралеи;{"ID": 14,"nameen": "Australia","namesc": "Австралии","name": "Австралия","country": "AU","lat": -25.274398,"lon": 133.775136}
15;Аруба,Арубе,Арубу,Орубу,Оруба,Орубе;{"ID": 15,"nameen": "Aruba","namesc": "Арубе","name": "Аруба","country": "AW","lat": 12.52111,"lon": -69.968338}
16;Азербайджан,Азербайджае,Азербайджану,Азирбайджан,Азирбайджану,Азирбайджае,Азербджан,Азирбджан;{"ID": 16,"nameen": "Azerbaijan","namesc": "Азербайджае","name": "Азербайджан","country": "AZ","lat": 40.143105,"lon": 47.576927}
17;Босния и Герцеговина,Боснии и Герцеговине,Босния,Боснея,Герцоговину,Герцоговине,Гирцоговина,Гирцоговину,Гирцоговине;{"ID": 17,"nameen": "Bosnia and Herzegovina","namesc": "Боснии и Герцеговине","name": "Босния и Герцеговина","country": "BA","lat": 43.915886,"lon": 17.679076}
18;Барбадос,Барбадосе,Барбадосу,Борбодосу,Борбодос,Борбодосе,Борбадосу,Борбодос,Борбодосе;{"ID": 18,"nameen": "Barbados","namesc": "Барбадосе","name": "Барбадос","country": "BB","lat": 13.193887,"lon": -59.543198}
19;Бангладеш,Бангладеш,Бангладешу,Бонгладешу,Бонгладеш,Бонгладеше,Банглодешу,Банглодеш,Банглодеше;{"ID": 19,"nameen": "Bangladesh","namesc": "Бангладеш","name": "Бангладеш","country": "BD","lat": 23.684994,"lon": 90.356331}
20;Бельгия,Бельгии,Бельгию,Бельгею,Бельгея,Бельгеи;{"ID": 20,"nameen": "Belgium","namesc": "Бельгии","name": "Бельгия","country": "BE","lat": 50.503887,"lon": 4.469936}
21;Буркина-Фасо,Буркина-Фасо,Буркина Фасо,Буркина,Фасо,Буркино,Фосо;{"ID": 21,"nameen": "Burkina Faso","namesc": "Буркина-Фасо","name": "Буркина-Фасо","country": "BF","lat": 12.238333,"lon": -1.561593}
22;Болгария,Болгарии,Болгарию,Балгарию,Балгария,Балгарии,Балгарею,Балгарея,Балгареи,Болгарею,Болгарея,Болгареи;{"ID": 22,"nameen": "Bulgaria","namesc": "Болгарии","name": "Болгария","country": "BG","lat": 42.733883,"lon": 25.48583}
23;Бахрейн,Бахрейне,Бахрейну,Бохрейну,Бохрейн,Бохрейне;{"ID": 23,"nameen": "Bahrain","namesc": "Бахрейне","name": "Бахрейн","country": "BH","lat": 25.930414,"lon": 50.637772}
24;Бурунди,Бурунди,Бурундию,Бурундия,Бурундии,Бурундие;{"ID": 24,"nameen": "Burundi","namesc": "Бурунди","name": "Бурунди","country": "BI","lat": -3.373056,"lon": 29.918886}
25;Бенин,Бенине,Бенину,Бинину,Бинин,Бинине;{"ID": 25,"nameen": "Benin","namesc": "Бенине","name": "Бенин","country": "BJ","lat": 9.30769,"lon": 2.315834}
26;Бермуды,Бермудах,Бермудам,Бирмудам,Бирмуды,Бирмудах;{"ID": 26,"nameen": "Bermuda","namesc": "Бермудах","name": "Бермуды","country": "BM","lat": 32.321384,"lon": -64.75737}
27;Бруней-Даруссалам,Брунее-Даруссалам,Брунейу-Даруссаламу,Брунейу,Даруссаламу,Бруней,Даруссалам,Брунее,Даруссаламах;{"ID": 27,"nameen": "Brunei","namesc": "Брунее-Даруссалам","name": "Бруней-Даруссалам","country": "BN","lat": 4.535277,"lon": 114.727669}
28;Боливия,Боливии,Боливию,Баливию,Баливия,Баливии;{"ID": 28,"nameen": "Bolivia","namesc": "Боливии","name": "Боливия,Многонациональное Государство","country": "BO","lat": -16.290154,"lon": -63.588653}
29;Бразилия,Бразилии,Бразилию,Брозилию,Брозилия,Брозилии,Брозилею,Брозилея,Брозилеи,Бразилею,Бразилея,Бразилеи;{"ID": 29,"nameen": "Brazil","namesc": "Бразилии","name": "Бразилия","country": "BR","lat": -14.235004,"lon": -51.92528}
30;Багамы,Багамах,Багамам,Багамов;{"ID": 30,"nameen": "Bahamas","namesc": "Багамах","name": "Багамы","country": "BS","lat": 25.03428,"lon": -77.39628}
31;Бутан,Бутане,Бутану,Бутани;{"ID": 31,"nameen": "Bhutan","namesc": "Бутане","name": "Бутан","country": "BT","lat": 27.514162,"lon": 90.433601}
32;Остров Буве,Острове Буве,Острову Буве,Буве;{"ID": 32,"nameen": "Bouvet Island","namesc": "Острове Буве","name": "Остров Буве","country": "BV","lat": -54.423199,"lon": 3.413194}
33;Ботсвана,Ботсване,Ботсвану,Батсвану,Батсвана,Батсване;{"ID": 33,"nameen": "Botswana","namesc": "Ботсване","name": "Ботсвана","country": "BW","lat": -22.328474,"lon": 24.684866}
34;Беларусь,Беларуси,Беларусьи,Белорусия,Белорусии,Беларусия,Беларусии;{"ID": 34,"nameen": "Belarus","namesc": "Беларуси","name": "Беларусь","country": "BY","lat": 53.709807,"lon": 27.953389}
35;Белиз,Белизе,Белизу,Белиза;{"ID": 35,"nameen": "Belize","namesc": "Белизе","name": "Белиз","country": "BZ","lat": 17.189877,"lon": -88.49765}
36;Канада,Канаде,Канаду,Конаде,Конада,Конаду,Конади,Конаде,Канаде;{"ID": 36,"nameen": "Canada","namesc": "Канаде","name": "Канада","country": "CA","lat": 56.130366,"lon": -106.346771}
37;Кокосовые острова,Кокосовых островах,Кокосовым островам,Кокосовым,Кокосовых,Кокосовые,Какосовым,Какосовых,Какосовые;{"ID": 37,"nameen": "Cocos [Keeling] Islands","namesc": "Кокосовых островах","name": "Кокосовые острова","country": "CC","lat": -12.164165,"lon": 96.870956}
38;Демократическая Республика Конго,Демократической Республике Конго,Демократической Республике Конго;{"ID": 38,"nameen": "Congo [DRC]","namesc": "Демократической Республике Конго","name": "Демократическая Республика Конго","country": "CD","lat": -4.038333,"lon": 21.758664}
39;Центрально-Африканская Республика,Центрально-Африканской Республике,Центрально-Африканской Республике,ЦАР,Центрально Африканская Республика,Центрально-Африканской Республике,Центрально-Африканскую Республику;{"ID": 39,"nameen": "Central African Republic","namesc": "Центрально-Африканской Республике","name": "Центрально-Африканская Республика","country": "CF","lat": 6.611111,"lon": 20.939444}
40;Республика Конго,Республике Конго,Республике Конго,Конго;{"ID": 40,"nameen": "Congo [Republic]","namesc": "Республике Конго","name": "Республика Конго","country": "CG","lat": -0.228021,"lon": 15.827659}
41;Швейцария,Швейцарии,Швейцарию,Швецарию,Швецария,Швецарии,Швийцарию,Швийцарии,Швийцария;{"ID": 41,"nameen": "Switzerland","namesc": "Швейцарии","name": "Швейцария","country": "CH","lat": 46.818188,"lon": 8.227512}
42;Кот-д Ивуар,Кот-д Ивуае,Кот-дИвуару,Дивуар,Дивуару,Дивуаре,Ди вуар,ди вуару,ди вуаре,Де вуар,де вуару,де вуаре,Ди-вуар,ди-вуару,ди-вуаре;{"ID": 42,"nameen": "C?te d'Ivoire","namesc": "Кот-д Ивуае","name": "Кот-д Ивуар","country": "CI","lat": 7.539989,"lon": -5.54708}
43;Острова Кука,Островах Кука,Островам Кука,Кука,Куку,Куке;{"ID": 43,"nameen": "Cook Islands","namesc": "Островах Кука","name": "Острова Кука","country": "CK","lat": -21.236736,"lon": -159.777671}
44;Чили,Чили,Чили;{"ID": 44,"nameen": "Chile","namesc": "Чили","name": "Чили","country": "CL","lat": -35.675147,"lon": -71.542969}
45;Камерун,Камеруне,Камеруну,Комерун,Комеруну,Комеруне;{"ID": 45,"nameen": "Cameroon","namesc": "Камеруне","name": "Камерун","country": "CM","lat": 7.369722,"lon": 12.354722}
46;Китай,Китае,Китаю,КНР,Китайская народная республика,Китайскую народную республику,Китайской народной республике;{"ID": 46,"nameen": "China","namesc": "Китае","name": "Китай","country": "CN","lat": 35.86166,"lon": 104.195397}
47;Колумбия,Колумбии,Колумбии,Калумбия,Калумбии,Калумбию;{"ID": 47,"nameen": "Colombia","namesc": "Колумбии","name": "Колумбия","country": "CO","lat": 4.570868,"lon": -74.297333}
48;Коста-Рика,Коста-Рике,Коста-Рику,Коста Рику,Коста Рика,Коста Рике;{"ID": 48,"nameen": "Costa Rica","namesc": "Коста-Рике","name": "Коста-Рика","country": "CR","lat": 9.748917,"lon": -83.753428}
49;Куба,Кубе,Кубу,Остров Свободы;{"ID": 49,"nameen": "Cuba","namesc": "Кубе","name": "Куба","country": "CU","lat": 21.521757,"lon": -77.781167}
50;Кабо-Верде,Кабо-Верде,Кабо Верде,Кабоверде,Кабаверде,Кабаверда;{"ID": 50,"nameen": "Cape Verde","namesc": "Кабо-Верде","name": "Кабо-Верде","country": "CV","lat": 16.002082,"lon": -24.013197}
51;Остров Рождества,Острове Рождества,Островам Рождества,Рождества,Рождество,Рождеству;{"ID": 51,"nameen": "Christmas Island","namesc": "Острове Рождества","name": "Остров Рождества","country": "CX","lat": -10.447525,"lon": 105.690449}
52;Кипр,Кипре,Кипру;{"ID": 52,"nameen": "Cyprus","namesc": "Кипре","name": "Кипр","country": "CY","lat": 35.126413,"lon": 33.429859}
53;Чехия,Чехии,Чехию,Чехея,Чехею,Чехеи;{"ID": 53,"nameen": "Czech Republic","namesc": "Чехии","name": "Чехия","country": "CZ","lat": 49.817492,"lon": 15.472962}
54;Германия,Германии,Германию,Гирмания,Гирманию,Гирмании;{"ID": 54,"nameen": "Germany","namesc": "Германии","name": "Германия","country": "DE","lat": 51.165691,"lon": 10.451526}
55;Джибути,Джибути,Джебути,Джебута,Джебутах;{"ID": 55,"nameen": "Djibouti","namesc": "Джибути","name": "Джибути","country": "DJ","lat": 11.825138,"lon": 42.590275}
56;Дания,Дании,Данию,Данея,Данею,Данеи;{"ID": 56,"nameen": "Denmark","namesc": "Дании","name": "Дания","country": "DK","lat": 56.26392,"lon": 9.501785}
57;Доминика,Доминике,Доминику,Доминика,Даменика,Даменику,Даменике;{"ID": 57,"nameen": "Dominica","namesc": "Доминике","name": "Доминика","country": "DM","lat": 15.414999,"lon": -61.370976}
58;Доминиканская Республика,Доминиканской Республике,Доминиканскую Республику,Доминикана,Доминикану,Доминикане,Даминикана,Даминикану,Даминикане,Даминиканская,Даминиканскую,Даминиканской,Доминиканская,Доминиканскую,Доминиканской;{"ID": 58,"nameen": "Dominican Republic","namesc": "Доминиканской Республике","name": "Доминиканская Республика","country": "DO","lat": 18.735693,"lon": -70.162651}
59;Алжир,Алжире,Алжиру,Олжир,Олжиру,Олжире;{"ID": 59,"nameen": "Algeria","namesc": "Алжире","name": "Алжир","country": "DZ","lat": 28.033886,"lon": 1.659626}
60;Эквадор,Эквадое,Эквадору,Еквадор,Еквадору,Еквадоре,Экводор,Экводору,Эквадоре;{"ID": 60,"nameen": "Ecuador","namesc": "Эквадое","name": "Эквадор","country": "EC","lat": -1.831239,"lon": -78.183406}
61;Эстония,Эстонии,Эстонию,Эстонею,Эстонея,Эстонеи;{"ID": 61,"nameen": "Estonia","namesc": "Эстонии","name": "Эстония","country": "EE","lat": 58.595272,"lon": 25.013607}
62;Египет,Египте,Египту;{"ID": 62,"nameen": "Egypt","namesc": "Египте","name": "Египет","country": "EG","lat": 26.820553,"lon": 30.802498}
63;Западная Сахара,Западной Сахаре,Западную Сахарау,Сахара,Сахару,Сахаре;{"ID": 63,"nameen": "Western Sahara","namesc": "Западной Сахаре","name": "Западная Сахара","country": "EH","lat": 24.215527,"lon": -12.885834}
64;Эритрея,Эритрее,Эритрею;{"ID": 64,"nameen": "Eritrea","namesc": "Эритрее","name": "Эритрея","country": "ER","lat": 15.179384,"lon": 39.782334}
65;Испания,Испании,Испанию,Испанея,Испанею,Испанея;{"ID": 65,"nameen": "Spain","namesc": "Испании","name": "Испания","country": "ES","lat": 40.463667,"lon": -3.74922}
66;Эфиопия,Эфиопии,Эфиопию,Эфиопея,Эфиопею,Эфиопеи;{"ID": 66,"nameen": "Ethiopia","namesc": "Эфиопии","name": "Эфиопия","country": "ET","lat": 9.145,"lon": 40.489673}
67;Финляндия,Финляндии,Финляндию,Финляндею,Финляндея,Финляндеи,Фенляндию,Фенляндия,Фенляндии;{"ID": 67,"nameen": "Finland","namesc": "Финляндии","name": "Финляндия","country": "FI","lat": 61.92411,"lon": 25.748151}
68;Фиджи,Фиджи;{"ID": 68,"nameen": "Fiji","namesc": "Фиджи","name": "Фиджи","country": "FJ","lat": -16.578193,"lon": 179.414413}
69;Фолклендские острова,Фолклендских островах,Фолкленды,Мальвинские,Мальвины,Мальвинах,Фолклендах,Фолклендов;{"ID": 69,"nameen": "Falkland Islands [Islas Malvinas]","namesc": "Фолклендских островах","name": "Фолклендские острова","country": "FK","lat": -51.796253,"lon": -59.523613}
70;Микронезия,Микронезии,Микронезию,Микранезия,Микранезии,Микранезию;{"ID": 70,"nameen": "Micronesia","namesc": "Микронезии","name": "Микронезия","country": "FM","lat": 7.425554,"lon": 150.550812}
71;Фарерские Острова,Фарерских Островах,Фарерские,Форерские,Форерских;{"ID": 71,"nameen": "Faroe Islands","namesc": "Фарерских Островах","name": "Фарерские Острова","country": "FO","lat": 61.892635,"lon": -6.911806}
72;Франция,Франции,Францию;{"ID": 72,"nameen": "France","namesc": "Франции","name": "Франция","country": "FR","lat": 46.227638,"lon": 2.213749}
73;Габон,Габоне,Габону,Гобон,Гобону,Гобоне;{"ID": 73,"nameen": "Gabon","namesc": "Габоне","name": "Габон","country": "GA","lat": -0.803689,"lon": 11.609444}
74;Соединенное Королевство,Соединенном Королевстве,Соединенных Королевств,Англия,Англии,Англие;{"ID": 74,"nameen": "United Kingdom","namesc": "Соединенном Королевстве","name": "Соединенное Королевство","country": "GB","lat": 55.378051,"lon": -3.435973}
75;Гренада,Гренаде,Гренаду,Гринада,Гринаду,Гринаде;{"ID": 75,"nameen": "Grenada","namesc": "Гренаде","name": "Гренада","country": "GD","lat": 12.262776,"lon": -61.604171}
76;Грузия,Грузии,Грузию;{"ID": 76,"nameen": "Georgia","namesc": "Грузии","name": "Грузия","country": "GE","lat": 42.315407,"lon": 43.356892}
77;Французская Гвиана,Французской Гвиане,Французскую Гвиана,Гаиана,Гвиану,Гвиане,Гвианах;{"ID": 77,"nameen": "French Guiana","namesc": "Французской Гвиане","name": "Французская Гвиана","country": "GF","lat": 3.933889,"lon": -53.125782}
78;Гернси,Гернси;{"ID": 78,"nameen": "Guernsey","namesc": "Гернси","name": "Гернси","country": "GG","lat": 49.465691,"lon": -2.585278}
79;Гана,Гане,Гану;{"ID": 79,"nameen": "Ghana","namesc": "Гане","name": "Гана","country": "GH","lat": 7.946527,"lon": -1.023194}
80;Гибралтар,Гибралтае,Гибралтару,Гебралтар,Гебралтару,Геблартаре;{"ID": 80,"nameen": "Gibraltar","namesc": "Гибралтае","name": "Гибралтар","country": "GI","lat": 36.137741,"lon": -5.345374}
81;Гренландия,Гренландии,Гренландию,Гринландия,Гринландию,Гринландии;{"ID": 81,"nameen": "Greenland","namesc": "Гренландии","name": "Гренландия","country": "GL","lat": 71.706936,"lon": -42.604303}
82;Гамбия,Гамбии,Гамбию;{"ID": 82,"nameen": "Gambia","namesc": "Гамбии","name": "Гамбия","country": "GM","lat": 13.443182,"lon": -15.310139}
83;Гвинея,Гвинеи,Гвинею,Гвенею,Гвенея,Гвенеи;{"ID": 83,"nameen": "Guinea","namesc": "Гвинеи","name": "Гвинея","country": "GN","lat": 9.945587,"lon": -9.696645}
84;Гваделупа,Гваделупе,Гваделупу,Гводелупу,Гводелупа,Гводелупе;{"ID": 84,"nameen": "Guadeloupe","namesc": "Гваделупе","name": "Гваделупа","country": "GP","lat": 16.995971,"lon": -62.067641}
85;Экваториальная Гвинея,Экваториальной Гвинее,Экваториальную Гвинею;{"ID": 85,"nameen": "Equatorial Guinea","namesc": "Экваториальной Гвинее","name": "Экваториальная Гвинея","country": "GQ","lat": 1.650801,"lon": 10.267895}
86;Греция,Греции,Грецию;{"ID": 86,"nameen": "Greece","namesc": "Греции","name": "Греция","country": "GR","lat": 39.074208,"lon": 21.824312}
87;Южная Джорджия и Южные Сандвичевы Острова,Южной Джорджии и Южных Сандвичевых Островах,Южную Джорджию и Южные Сандвичевы Острова,Джорджия,Джорджию,Джорджии,Сендвичевы,Сендвичевых,Сендвичевом;{"ID": 87,"nameen": "South Georgia and the South Sandwich Islands","namesc": "Южной Джорджии и Южных Сандвичевых Островах","name": "Южная Джорджия и Южные Сандвичевы Острова","country": "GS","lat": -54.429579,"lon": -36.587909}
88;Гватемала,Гватемале,Гватемалу,Гвотемалу,Гвотемала,Гвотемале;{"ID": 88,"nameen": "Guatemala","namesc": "Гватемале","name": "Гватемала","country": "GT","lat": 15.783471,"lon": -90.230759}
89;Гуам,Гуаме,Гуама;{"ID": 89,"nameen": "Guam","namesc": "Гуаме","name": "Гуам","country": "GU","lat": 13.444304,"lon": 144.793731}
90;Гвинея-Бисау,Гвинее-Бисау,Гвинею-Бисау,Гвинею,Гвинея,Гвинеей,Гвинее,Бисау,Бесау;{"ID": 90,"nameen": "Guinea-Bissau","namesc": "Гвинее-Бисау","name": "Гвинея-Бисау","country": "GW","lat": 11.803749,"lon": -15.180413}
91;Гайана,Гайане,Гайану;{"ID": 91,"nameen": "Guyana","namesc": "Гайане","name": "Гайана","country": "GY","lat": 4.860416,"lon": -58.93018}
92;Сектор Газа,Секторе Газа,Сектору Газа,Газа,Газе;{"ID": 92,"nameen": "Gaza Strip","namesc": "Секторе Газа","name": "Сектор Газа","country": "GZ","lat": 31.354676,"lon": 34.308825}
93;Гонконг,Гонконге,Гонконгу;{"ID": 93,"nameen": "Hong Kong","namesc": "Гонконге","name": "Гонконг","country": "HK","lat": 22.396428,"lon": 114.109497}
94;Остров Херд и Острова Макдональд,Острове Херд и Островах Макдональд,Острову Херд и Островам Макдональд,Херд,Макдоналд;{"ID": 94,"nameen": "Heard Island and McDonald Islands","namesc": "Острове Херд и Островах Макдональд","name": "Остров Херд и Острова Макдональд","country": "HM","lat": -53.08181,"lon": 73.504158}
95;Гондурас,Гондурасе,Гондурасу,Гандурасу,Гандураса,Гандурасе;{"ID": 95,"nameen": "Honduras","namesc": "Гондурасе","name": "Гондурас","country": "HN","lat": 15.199999,"lon": -86.241905}
96;Хорватия,Хорватии,Хорватию,Харватии,Харватию,Харватия;{"ID": 96,"nameen": "Croatia","namesc": "Хорватии","name": "Хорватия","country": "HR","lat": 45.1,"lon": 15.2}
97;Гаити,Гаити;{"ID": 97,"nameen": "Haiti","namesc": "Гаити","name": "Гаити","country": "HT","lat": 18.971187,"lon": -72.285215}
98;Венгрия,Венгрии,Венгрию;{"ID": 98,"nameen": "Hungary","namesc": "Венгрии","name": "Венгрия","country": "HU","lat": 47.162494,"lon": 19.503304}
99;Индонезия,Индонезии,Индонезию,Инданезия,Инданезию,Инданезии;{"ID": 99,"nameen": "Indonesia","namesc": "Индонезии","name": "Индонезия","country": "ID","lat": -0.789275,"lon": 113.921327}
100;Ирландия,Ирландии,Ирландию;{"ID": 100,"nameen": "Ireland","namesc": "Ирландии","name": "Ирландия","country": "IE","lat": 53.41291,"lon": -8.24389}
101;Израиль,Израиле,Израиля;{"ID": 101,"nameen": "Israel","namesc": "Израиле","name": "Израиль","country": "IL","lat": 31.046051,"lon": 34.851612}
102;Остров Мэн,Острове Мэн,Острову Мэн,Мэн,Мен;{"ID": 102,"nameen": "Isle of Man","namesc": "Острове Мэн","name": "Остров Мэн","country": "IM","lat": 54.236107,"lon": -4.548056}
103;Индия,Индии,Индию;{"ID": 103,"nameen": "India","namesc": "Индии","name": "Индия","country": "IN","lat": 20.593684,"lon": 78.96288}
104;Британская Территория в Индийском Океане,Британских Территориях в Индийском Океане,Британскую Территорию в Индийском Океане,Британскую Территорию,Британская Территория,Британской Территорией;{"ID": 104,"nameen": "British Indian Ocean Territory","namesc": "Британских Территориях в Индийском Океане","name": "Британская Территория в Индийском Океане","country": "IO","lat": -6.343194,"lon": 71.876519}
105;Ирак,Ираке,Ираку;{"ID": 105,"nameen": "Iraq","namesc": "Ираке","name": "Ирак","country": "IQ","lat": 33.223191,"lon": 43.679291}
106;Иран,Иране,Ирану;{"ID": 106,"nameen": "Iran","namesc": "Иране","name": "Иран","country": "IR","lat": 32.427908,"lon": 53.688046}
107;Исландия,Исландии,Исландию;{"ID": 107,"nameen": "Iceland","namesc": "Исландии","name": "Исландия","country": "IS","lat": 64.963051,"lon": -19.020835}
108;Италия,Италии,Италию;{"ID": 108,"nameen": "Italy","namesc": "Италии","name": "Италия","country": "IT","lat": 41.87194,"lon": 12.56738}
109;Джерси,Джерси;{"ID": 109,"nameen": "Jersey","namesc": "Джерси","name": "Джерси","country": "JE","lat": 49.214439,"lon": -2.13125}
110;Ямайка,Ямайке,Ямайку;{"ID": 110,"nameen": "Jamaica","namesc": "Ямайке","name": "Ямайка","country": "JM","lat": 18.109581,"lon": -77.297508}
111;Иордания,Иордании,Иорданию,Иарданию,Иардания,Иардании;{"ID": 111,"nameen": "Jordan","namesc": "Иордании","name": "Иордания","country": "JO","lat": 30.585164,"lon": 36.238414}
112;Япония,Японии,Японию;{"ID": 112,"nameen": "Japan","namesc": "Японии","name": "Япония","country": "JP","lat": 36.204824,"lon": 138.252924}
113;Кения,Кении,Кению;{"ID": 113,"nameen": "Kenya","namesc": "Кении","name": "Кения","country": "KE","lat": -0.023559,"lon": 37.906193}
114;Киргизия,Киргизии,Киргизию;{"ID": 114,"nameen": "Kyrgyzstan","namesc": "Киргизии","name": "Киргизия","country": "KG","lat": 41.20438,"lon": 74.766098}
115;Камбоджа,Камбодже,Камбоджу;{"ID": 115,"nameen": "Cambodia","namesc": "Камбодже","name": "Камбоджа","country": "KH","lat": 12.565679,"lon": 104.990963}
116;Кирибати,Кирибати;{"ID": 116,"nameen": "Kiribati","namesc": "Кирибати","name": "Кирибати","country": "KI","lat": -3.370417,"lon": -168.734039}
117;Коморы,Коморах;{"ID": 117,"nameen": "Comoros","namesc": "Коморах","name": "Коморы","country": "KM","lat": -11.875001,"lon": 43.872219}
118;Сент-Китс и Невис,Сент-Китсе и Невисе,Сент-Китс,Сент Китс,Сенткитс,Невис,Невисе;{"ID": 118,"nameen": "Saint Kitts and Nevis","namesc": "Сент-Китсе и Невисе","name": "Сент-Китс и Невис","country": "KN","lat": 17.357822,"lon": -62.782998}
119;КНДР,Северная Корея,Северную корею;{"ID": 119,"nameen": "North Korea","namesc": "КНДР","name": "КНДР","country": "KP","lat": 40.339852,"lon": 127.510093}
120;Корея,Республика Корея,Республике Корея,Южную корею;{"ID": 120,"nameen": "South Korea","namesc": "Республике Корея","name": "Республика Корея","country": "KR","lat": 35.907757,"lon": 127.766922}
121;Кувейт,Кувейт,Кувейту;{"ID": 121,"nameen": "Kuwait","namesc": "Кувейт","name": "Кувейт","country": "KW","lat": 29.31166,"lon": 47.481766}
122;Острова Кайман,Каймановых островах,Острову Кайман,Кайман,Каймане,Кайманах,Кайманов,Кайманы;{"ID": 122,"nameen": "Cayman Islands","namesc": "Каймановых островах","name": "Острова Кайман","country": "KY","lat": 19.513469,"lon": -80.566956}
123;Казахстан,Казакстан,Казахстане,Казахстану;{"ID": 123,"nameen": "Kazakhstan","namesc": "Казахстане","name": "Казахстан","country": "KZ","lat": 48.019573,"lon": 66.923684}
124;Лаосская Народно-Демократическая Республика,Лаосской Народно-Демократической Республике,Лаоссу,Лаос,Лаосу,Лаосе;{"ID": 124,"nameen": "Laos","namesc": "Лаосской Народно-Демократической Республике","name": "Лаосская Народно-Демократическая Республика","country": "LA","lat": 19.85627,"lon": 102.495496}
125;Ливан,Ливане,Ливану,Левану,Леване,Леван;{"ID": 125,"nameen": "Lebanon","namesc": "Ливане","name": "Ливан","country": "LB","lat": 33.854721,"lon": 35.862285}
126;Сент-Люсия,Сент-Люсии,Сент-Люсию,Сент Люсию,Люсию,Сент Люсия,Люсии,Сент Люсии;{"ID": 126,"nameen": "Saint Lucia","namesc": "Сент-Люсии","name": "Сент-Люсия","country": "LC","lat": 13.909444,"lon": -60.978893}
127;Лихтенштейн,Лихтенштейне,Лихтенштейу,Лехтинштейн,Лехтинштейне,Лехтинштейу;{"ID": 127,"nameen": "Liechtenstein","namesc": "Лихтенштейне","name": "Лихтенштейн","country": "LI","lat": 47.166,"lon": 9.555373}
128;Шри-Ланка,Шри-Ланке,Шри-Ланку,Шри Ланку,Шри Ланке,Шри Ланка,Шриланку,Шриланке,Шриланка;{"ID": 128,"nameen": "Sri Lanka","namesc": "Шри-Ланке","name": "Шри-Ланка","country": "LK","lat": 7.873054,"lon": 80.771797}
129;Либерия,Либерии,Либерию,Леберию,Леберия,Леберии;{"ID": 129,"nameen": "Liberia","namesc": "Либерии","name": "Либерия","country": "LR","lat": 6.428055,"lon": -9.429499}
130;Лесото,Лесото,Лесоту;{"ID": 130,"nameen": "Lesotho","namesc": "Лесото","name": "Лесото","country": "LS","lat": -29.609988,"lon": 28.233608}
131;Литва,Литве,Литву,Летва,Летву,Летве;{"ID": 131,"nameen": "Lithuania","namesc": "Литве","name": "Литва","country": "LT","lat": 55.169438,"lon": 23.881275}
132;Люксембург,Люксембурге,Люксембургу,Люксимбургу,Люксимбург,Люксимбурге;{"ID": 132,"nameen": "Luxembourg","namesc": "Люксембурге","name": "Люксембург","country": "LU","lat": 49.815273,"lon": 6.129583}
133;Латвия,Латвии,Латвию;{"ID": 133,"nameen": "Latvia","namesc": "Латвии","name": "Латвия","country": "LV","lat": 56.879635,"lon": 24.603189}
134;Ливии,Ливию;{"ID": 134,"nameen": "Libya","namesc": "Ливии","country": "LY","lat": 26.3351,"lon": 17.228331}
135;Марокко,Морокко;{"ID": 135,"nameen": "Morocco","namesc": "Марокко","name": "Марокко","country": "MA","lat": 31.791702,"lon": -7.09262}
136;Монако,Манако;{"ID": 136,"nameen": "Monaco","namesc": "Монако","name": "Монако","country": "MC","lat": 43.750298,"lon": 7.412841}
137;Молдавия,Молдавии,Молдавию,Малдавия,Малдавию,Малдавии;{"ID": 137,"nameen": "Moldova","namesc": "Молдавии","name": "Молдавия","country": "MD","lat": 47.411631,"lon": 28.369885}
138;Черногория,Черногории,Черногорию,Чирнагория,Чернагория,Чирнагория,Чирногорию,Чирногории,Чернагорию,Чернагории,Чирнагорию,Чирнагории;{"ID": 138,"nameen": "Montenegro","namesc": "Черногории","name": "Черногория","country": "ME","lat": 42.708678,"lon": 19.37439}
139;Мадагаскар,Мадагаскаре,Мадагаскару,Модогаскар,Модагоскар,Модогоскар,Модогаскару,Модогаскаре,Модагоскару,Модагоскаре,Модогоскаре,Модогоскаре;{"ID": 139,"nameen": "Madagascar","namesc": "Мадагаскаре","name": "Мадагаскар","country": "MG","lat": -18.766947,"lon": 46.869107}
140;Маршалловы Острова,Маршалловых Островах,Маршалловым Островам,Маршаловы,Маршалловым,Маршаловых,Моршаловы,Моршалловым,Моршаловых;{"ID": 140,"nameen": "Marshall Islands","namesc": "Маршалловых Островах","name": "Маршалловы Острова","country": "MH","lat": 7.131474,"lon": 171.184478}
141;Северная Македония,Северной Македонии,Северную Македонию,Македонии,Македония,Македонию,Макидонии,Макидония,Макидонию,Макидонии,Мокедонии,Мокедония,Мокедонию,Мокидонии,Мокидония,Мокидонию;{"ID": 141,"nameen": "Macedonia [FYROM]","namesc": "Северной Македонии","name": "Северная Македония","country": "MK","lat": 41.608635,"lon": 21.745275}
142;Мали,Мали;{"ID": 142,"nameen": "Mali","namesc": "Мали","name": "Мали","country": "ML","lat": 17.570692,"lon": -3.996166}
143;Мьянма,Мьянме,Мьянму,Мянму,Мянма,Мянсе;{"ID": 143,"nameen": "Myanmar [Burma]","namesc": "Мьянме","name": "Мьянма","country": "MM","lat": 21.913965,"lon": 95.956223}
144;Монголия,Монголии,Монголию,Манголию,Манголия,Манголии;{"ID": 144,"nameen": "Mongolia","namesc": "Монголии","name": "Монголия","country": "MN","lat": 46.862496,"lon": 103.846656}
145;Макао,Мокао;{"ID": 145,"nameen": "Macau","namesc": "Макао","name": "Макао","country": "MO","lat": 22.198745,"lon": 113.543873}
146;Северные Марианские Острова,Северных Марианских Островах,Северным Марианским Островам,Марианские,Марианским,Марианских;{"ID": 146,"nameen": "Northern Mariana Islands","namesc": "Северных Марианских Островах","name": "Северные Марианские Острова","country": "MP","lat": 17.33083,"lon": 145.38469}
147;Мартиника,Мартинике,Мартинику,Мортинику;{"ID": 147,"nameen": "Martinique","namesc": "Мартинике","name": "Мартиника","country": "MQ","lat": 14.641528,"lon": -61.024174}
148;Мавритания,Мавритании,Мавританию,Мовританию;{"ID": 148,"nameen": "Mauritania","namesc": "Мавритании","name": "Мавритания","country": "MR","lat": 21.00789,"lon": -10.940835}
149;Монтсеррат,Монтсеррате,Монтсеррату,Монсерату,Монтсерату,Мансерату,Монтсерату,Монсерат,Монтсерат,Мансерат,Монтсерат,Монсерате,Монтсерате,Мансерате,Монтсерате;{"ID": 149,"nameen": "Montserrat","namesc": "Монтсеррате","name": "Монтсеррат","country": "MS","lat": 16.742498,"lon": -62.187366}
150;Мальта,Мальте,Мальту,Остров Мальта;{"ID": 150,"nameen": "Malta","namesc": "Мальте","name": "Мальта","country": "MT","lat": 35.937496,"lon": 14.375416}
151;Маврикий,Маврикие,Маврикию,Моврикий,Моврикию,Моврикии;{"ID": 151,"nameen": "Mauritius","namesc": "Маврикие","name": "Маврикий","country": "MU","lat": -20.348404,"lon": 57.552152}
152;Мальдивы,Мальдивах,Мальдивам,Мольдивам,Мольдивы,Мольдивах;{"ID": 152,"nameen": "Maldives","namesc": "Мальдивах","name": "Мальдивы","country": "MV","lat": 3.202778,"lon": 73.22068}
153;Малави,Малави;{"ID": 153,"nameen": "Malawi","namesc": "Малави","name": "Малави","country": "MW","lat": -13.254308,"lon": 34.301525}
154;Мексика,Мексике,Мексику,Мексеку,Мексека,Мексеке;{"ID": 154,"nameen": "Mexico","namesc": "Мексике","name": "Мексика","country": "MX","lat": 23.634501,"lon": -102.552784}
155;Малайзия,Малайзии,Малайзию,Малазию,Молазию,Малазия,Молазия,Малазии,Молазии;{"ID": 155,"nameen": "Malaysia","namesc": "Малайзии","name": "Малайзия","country": "MY","lat": 4.210484,"lon": 101.975766}
156;Мозамбик,Мозамбике,Мозамбику,Мазамбику,Мазамбик,Мазамбике;{"ID": 156,"nameen": "Mozambique","namesc": "Мозамбике","name": "Мозамбик","country": "MZ","lat": -18.665695,"lon": 35.529562}
157;Намибия,Намибии,Намибию,Номибию,Номибия,Номибии,Номибью,Номибья,Номибьи;{"ID": 157,"nameen": "Namibia","namesc": "Намибии","name": "Намибия","country": "NA","lat": -22.95764,"lon": 18.49041}
158;Новая Каледония,Новой Каледонии,Новую Каледонию,Каледонию,Каледония,Каледонии,Коледонию,Коледония,Коледонии,Калидонию,Калидония,Калидонии,Колидонию,Колидония,Колидонии;{"ID": 158,"nameen": "New Caledonia","namesc": "Новой Каледонии","name": "Новая Каледония","country": "NC","lat": -20.904305,"lon": 165.618042}
159;Нигер,Нигере,Нигеру,Негер;{"ID": 159,"nameen": "Niger","namesc": "Нигере","name": "Нигер","country": "NE","lat": 17.607789,"lon": 8.081666}
160;Норфолк,Остров Норфолк,Норфолке,Норфолку;{"ID": 160,"nameen": "Norfolk Island","namesc": "Норфолке","name": "Норфолк","country": "NF","lat": -29.040835,"lon": 167.954712}
161;Нигерия,Нигерии,Нигерию,Негерию,Негерия,Негерии;{"ID": 161,"nameen": "Nigeria","namesc": "Нигерии","name": "Нигерия","country": "NG","lat": 9.081999,"lon": 8.675277}
162;Никарагуа,Никарагуа,Некарагуа;{"ID": 162,"nameen": "Nicaragua","namesc": "Никарагуа","name": "Никарагуа","country": "NI","lat": 12.865416,"lon": -85.207229}
163;Нидерланды,Нидерландах,Голландия,Голландию,Голландии,Недерландов,Нидерландов,Недерланды,Недераландах;{"ID": 163,"nameen": "Netherlands","namesc": "Нидерландах","name": "Нидерланды","country": "NL","lat": 52.132633,"lon": 5.291266}
164;Норвегия,Норвегии,Норвегию,Нарвегию,Нарвегии,Нарвегия;{"ID": 164,"nameen": "Norway","namesc": "Норвегии","name": "Норвегия","country": "NO","lat": 60.472024,"lon": 8.468946}
165;Непал,Непале,Непалу,Нипал,Нипалу,Нипале;{"ID": 165,"nameen": "Nepal","namesc": "Непале","name": "Непал","country": "NP","lat": 28.394857,"lon": 84.124008}
166;Науру,Науре;{"ID": 166,"nameen": "Nauru","namesc": "Науре","name": "Науру","country": "NR","lat": -0.522778,"lon": 166.931503}
167;Ниуэ,Ниуэ;{"ID": 167,"nameen": "Niue","namesc": "Ниуэ","name": "Ниуэ","country": "NU","lat": -19.054445,"lon": -169.867233}
168;Новая Зеландия,Новой Зеландии,Новую Зеландию,Зеландия,Зеландию,Зеландии;{"ID": 168,"nameen": "New Zealand","namesc": "Новой Зеландии","name": "Новая Зеландия","country": "NZ","lat": -40.900557,"lon": 174.885971}
169;Оман,Омане,Оману,Аман,Аману,Амане;{"ID": 169,"nameen": "Oman","namesc": "Омане","name": "Оман","country": "OM","lat": 21.512583,"lon": 55.923255}
170;Панама,Панаме,Панаму,Понама,Понаму,Понаме;{"ID": 170,"nameen": "Panama","namesc": "Панаме","name": "Панама","country": "PA","lat": 8.537981,"lon": -80.782127}
171;Перу,Пиру;{"ID": 171,"nameen": "Peru","namesc": "Перу","name": "Перу","country": "PE","lat": -9.189967,"lon": -75.015152}
172;Французская Полинезия,Французской Полинезии,Французскую Полинезию,Полинезия,Полинезию,Полинезии;{"ID": 172,"nameen": "French Polynesia","namesc": "Французской Полинезии","name": "Французская Полинезия","country": "PF","lat": -17.679742,"lon": -149.406843}
173;Папуа Новая Гвинея,Папуа Новой Гвинее,Папуа Новую Гвинею,Папуа,Гвинея,Гвинею,Гвинея,Гвинее;{"ID": 173,"nameen": "Papua New Guinea","namesc": "Папуа Новой Гвинее","name": "Папуа Новая Гвинея","country": "PG","lat": -6.314993,"lon": 143.95555}
174;Филиппины,Филиппинах,Филиппинам,Филипины,Филипинам,Филипинах;{"ID": 174,"nameen": "Philippines","namesc": "Филиппинах","name": "Филиппины","country": "PH","lat": 12.879721,"lon": 121.774017}
175;Пакистан,Пакистане,Пакистану,Покистан,Покистану,Покистане;{"ID": 175,"nameen": "Pakistan","namesc": "Пакистане","name": "Пакистан","country": "PK","lat": 30.375321,"lon": 69.345116}
176;Польша,Польше,Польшу;{"ID": 176,"nameen": "Poland","namesc": "Польше","name": "Польша","country": "PL","lat": 51.919438,"lon": 19.145136}
177;Сен-Пьер и Микелон,Сен-Пьере и Микелоне,Сен-Пьеру,Сен Пьер,Сенпьер,Сен Пьере,Сенпьере,Микелон,Микелоне;{"ID": 177,"nameen": "Saint Pierre and Miquelon","namesc": "Сен-Пьере и Микелоне","name": "Сен-Пьер и Микелон","country": "PM","lat": 46.941936,"lon": -56.27111}
178;Питкерн,Питкерне,Питкерну,Петкерн,Петкерну,Петкерне;{"ID": 178,"nameen": "Pitcairn Islands","namesc": "Питкерне","name": "Питкерн","country": "PN","lat": -24.703615,"lon": -127.439308}
179;Пуэрто-Рико,Пуэрто Рико,Пуэрто,Пуэрторико;{"ID": 179,"nameen": "Puerto Rico","namesc": "Пуэрто-Рико","name": "Пуэрто-Рико","country": "PR","lat": 18.220833,"lon": -66.590149}
180;Палестинские территории,Палестинских территориях,Палестинским территориям,Палестина,Палестине,Палестину;{"ID": 180,"nameen": "Palestinian Territories","namesc": "Палестинских территориях","name": "Палестинские территории","country": "PS","lat": 31.952162,"lon": 35.233154}
181;Португалия,Португалии,Португалию,Партугалию,Партугалия,Партугалии;{"ID": 181,"nameen": "Portugal","namesc": "Португалии","name": "Португалия","country": "PT","lat": 39.399872,"lon": -8.224454}
182;Палау,Паллау;{"ID": 182,"nameen": "Palau","namesc": "Палау","name": "Палау","country": "PW","lat": 7.51498,"lon": 134.58252}
183;Парагвай,Парагвае,Парагваю,Порагвай,Порагваю,Порагвае;{"ID": 183,"nameen": "Paraguay","namesc": "Парагвае","name": "Парагвай","country": "PY","lat": -23.442503,"lon": -58.443832}
184;Катар,Катаре,Катару,Котар,Котару,Котаре;{"ID": 184,"nameen": "Qatar","namesc": "Катаре","name": "Катар","country": "QA","lat": 25.354826,"lon": 51.183884}
185;Реюньон,Реюньоне,Реюньону,Риюньону,Риюньон,Риюньоне,Реньен,Реньену,Реньене,Реньон,Реньону,Реньоне;{"ID": 185,"nameen": "Reunion","namesc": "Реюньоне","name": "Реюньон","country": "RE","lat": -21.115141,"lon": 55.536384}
186;Румыния,Румынии,Румынию;{"ID": 186,"nameen": "Romania","namesc": "Румынии","name": "Румыния","country": "RO","lat": 45.943161,"lon": 24.96676}
187;Сербия,Сербии,Сербию;{"ID": 187,"nameen": "Serbia","namesc": "Сербии","name": "Сербия","country": "RS","lat": 44.016521,"lon": 21.005859}
188;Россия,России,Россию;{"ID": 188,"nameen": "Russia","namesc": "России","name": "Россия","country": "RU","lat": 61.52401,"lon": 105.318756}
189;Руанда,Руанде,Руанду;{"ID": 189,"nameen": "Rwanda","namesc": "Руанде","name": "Руанда","country": "RW","lat": -1.940278,"lon": 29.873888}
190;Саудовская Аравия,Саудовской Аравии,Саудовскую Аравию,Саудовская,Саудовской,Саудовскую;{"ID": 190,"nameen": "Saudi Arabia","namesc": "Саудовской Аравии","name": "Саудовская Аравия","country": "SA","lat": 23.885942,"lon": 45.079162}
191;Соломоновы Острова,Соломоновых Островах,Соломоновым Островам,Соломоновы,Соломоновым,Соломоновых;{"ID": 191,"nameen": "Solomon Islands","namesc": "Соломоновых Островах","name": "Соломоновы Острова","country": "SB","lat": -9.64571,"lon": 160.156194}
192;Сейшелы,Сейшелах,Сейшелам,Сийшелы,Сийшелам,Сийшелах,Сейшилы,Сейшилам,Сейшилах;{"ID": 192,"nameen": "Seychelles","namesc": "Сейшелах","name": "Сейшелы","country": "SC","lat": -4.679574,"lon": 55.491977}
193;Судан,Судане,Судану;{"ID": 193,"nameen": "Sudan","namesc": "Судане","name": "Судан","country": "SD","lat": 12.862807,"lon": 30.217636}
194;Швеция,Швеции,Швецию;{"ID": 194,"nameen": "Sweden","namesc": "Швеции","name": "Швеция","country": "SE","lat": 60.128161,"lon": 18.643501}
195;Сингапур,Сингапуре,Сингапуру,Сенгапур,Сенгапуру,Сенгапуре;{"ID": 195,"nameen": "Singapore","namesc": "Сингапуре","name": "Сингапур","country": "SG","lat": 1.352083,"lon": 103.819836}
196;Остров Святой Елены,Острове Святой Елены,Острову Святой Елены,Святой Елены,Святая Елена;{"ID": 196,"nameen": "Saint Helena","namesc": "Острове Святой Елены","name": "Остров Святой Елены","country": "SH","lat": -24.143474,"lon": -10.030696}
197;Словения,Словении,Словению,Славения,Славению,Словении;{"ID": 197,"nameen": "Slovenia","namesc": "Словении","name": "Словения","country": "SI","lat": 46.151241,"lon": 14.995463}
198;Шпицберген и Ян-Майен,Шпицбергене и Ян-Майене,Шпицбергену и Ян-Майену,Шпицберген,Шпицбергену,Шпицбергене,Ян-Майену,Ян-Майен,Ян-майене,Ян Майену,Ян Майен,Ян майене,Янмайену,Янмайен,Янмайене,Ян-Маену,Ян-Маен,Ян-маене,Ян Маену,Ян Маен,Ян Маене,Янмаену,Янмаен,Янмаене.;{"ID": 198,"nameen": "Svalbard and Jan Mayen","namesc": "Шпицбергене и Ян-Майене","name": "Шпицберген и Ян-Майен","country": "SJ","lat": 77.553604,"lon": 23.670272}
199;Словакия,Словакии,Словакию,Славакия,Славакию,Славакии;{"ID": 199,"nameen": "Slovakia","namesc": "Словакии","name": "Словакия","country": "SK","lat": 48.669026,"lon": 19.699024}
200;Сьерра-Леоне,Сьера-Леоне,Сьерра Леоне,Сьера Леоне;{"ID": 200,"nameen": "Sierra Leone","namesc": "Сьерра-Леоне","name": "Сьерра-Леоне","country": "SL","lat": 8.460555,"lon": -11.779889}
201;Сан-Марино,СанМарино,Сан Марино;{"ID": 201,"nameen": "San Marino","namesc": "Сан-Марино","name": "Сан-Марино","country": "SM","lat": 43.94236,"lon": 12.457777}
202;Сенегал,Сенегале,Синегал,Синегалу,Синегале;{"ID": 202,"nameen": "Senegal","namesc": "Сенегале","name": "Сенегал","country": "SN","lat": 14.497401,"lon": -14.452362}
203;Сомали,Самали;{"ID": 203,"nameen": "Somalia","namesc": "Сомали","name": "Сомали","country": "SO","lat": 5.152149,"lon": 46.199616}
204;Суринам,Суринаме,Суринам;{"ID": 204,"nameen": "Suriname","namesc": "Суринаме","name": "Суринам","country": "SR","lat": 3.919305,"lon": -56.027783}
205;Сан-Томе и Принсипи,Сан-Томе и Принципи,Сан Томе,Сантоме,Принисипе,Пренисипи;{"ID": 205,"nameen": "São Tomé e Príncipe","namesc": "Сан-Томе и Принсипи","name": "Сан-Томе и Принсипи","country": "ST","lat": 0.18636,"lon": 6.613081}
206;Эль-Сальвадор,Эль-Сальвадоре,Сальводор,Сальводору,Сальводоре,Сальвадор,Сальвадору,Сальвадоре;{"ID": 206,"nameen": "El Salvador","namesc": "Эль-Сальвадоре","name": "Эль-Сальвадор","country": "SV","lat": 13.794185,"lon": -88.89653}
207;Сирия,Сирии,Сирию;{"ID": 207,"nameen": "Syria","namesc": "Сирии","name": "Сирия","country": "SY","lat": 34.802075,"lon": 38.996815}
208;Эсватини,Эсватини,Эсватини;{"ID": 208,"nameen": "Swaziland","namesc": "Эсватини","name": "Эсватини","country": "SZ","lat": -26.522503,"lon": 31.465866}
209;Тёркс и Кайкос,Тёрксе и Кайкосе,Тёрксу и Кайкосу,Тёрксу,Терксу,Тёркс,Теркс,Тёрксе,Терксе,Кайкос,Кайкосу,Кайкосе;{"ID": 209,"nameen": "Тёркс и Кайкос","namesc": "Тёрксе и Кайкосе","name": "Тёркс и Кайкос","country": "TC","lat": 21.694025,"lon": -71.797928}
210;Чад,Чаде,Чаду;{"ID": 210,"nameen": "Chad","namesc": "Чаде","name": "Чад","country": "TD","lat": 15.454166,"lon": 18.732207}
211;Французские Южные Территории,Французских Южных Территорий,Французским Южным Территориям;{"ID": 211,"nameen": "French Southern Territories","namesc": "Французских Южных Территорий","name": "Французские Южные Территории","country": "TF","lat": -49.280366,"lon": 69.348557}
212;Того;{"ID": 212,"nameen": "Togo","namesc": "Того","name": "Того","country": "TG","lat": 8.619543,"lon": 0.824782}
213;Таиланд,Таиланде,Таиланду,Тайланд,Тайланде,Тайланду;{"ID": 213,"nameen": "Thailand","namesc": "Таиланде","name": "Таиланд","country": "TH","lat": 15.870032,"lon": 100.992541}
214;Таджикистан,Таджикистане,Таджикистану,Таджикестан,Таджикестану,Таджикестану;{"ID": 214,"nameen": "Tajikistan","namesc": "Таджикистане","name": "Таджикистан","country": "TJ","lat": 38.861034,"lon": 71.276093}
215;Токелау,Токелау,Такелау;{"ID": 215,"nameen": "Tokelau","namesc": "Токелау","name": "Токелау","country": "TK","lat": -8.967363,"lon": -171.855881}
216;Тимор-Лесте,Тиморе-Лесте,Тимор,Лесте,Тимор Лесте,Тиморлесте;{"ID": 216,"nameen": "Timor-Leste","namesc": "Тиморе-Лесте","name": "Тимор-Лесте","country": "TL","lat": -8.874217,"lon": 125.727539}
217;Туркмения,Туркмении,Туркмению,Туркменистан,Туркменистане;{"ID": 217,"nameen": "Turkmenistan","namesc": "Туркмении","name": "Туркмения","country": "TM","lat": 38.969719,"lon": 59.556278}
218;Тунис,Тунисе,Тунису;{"ID": 218,"nameen": "Tunisia","namesc": "Тунисе","name": "Тунис","country": "TN","lat": 33.886917,"lon": 9.537499}
219;Тонга,Тонге;{"ID": 219,"nameen": "Tonga","namesc": "Тонга","name": "Тонга","country": "TO","lat": -21.178986,"lon": -175.198242}
220;Турция,Турции,Турцию;{"ID": 220,"nameen": "Turkey","namesc": "Турции","name": "Турция","country": "TR","lat": 38.963745,"lon": 35.243322}
221;Тринидад и Тобаго,Тринидаде и Тобаго,Тринидаду и Тобаго,Тринидаду,Тобаго,Тринидад,Тринидаде;{"ID": 221,"nameen": "Trinidad and Tobago","namesc": "Тринидаде и Тобаго","name": "Тринидад и Тобаго","country": "TT","lat": 10.691803,"lon": -61.222503}
222;Тувалу;{"ID": 222,"nameen": "Tuvalu","namesc": "Тувалу","name": "Тувалу","country": "TV","lat": -7.109535,"lon": 177.64933}
223;Тайвань (Китай),Тайване,Тайваню;{"ID": 223,"nameen": "Taiwan","namesc": "Тайване","name": "Тайвань (Китай)","country": "TW","lat": 23.69781,"lon": 120.960515}
224;Танзания,Объединенная Республика,Танзании,Танзанию,Тонзанию,Тонзании,Тонзания,Танзания;{"ID": 224,"nameen": "Tanzania","namesc": "Танзании","name": "Танзания,Объединенная Республика","country": "TZ","lat": -6.369028,"lon": 34.888822}
225;Украина,Украине,Украину;{"ID": 225,"nameen": "Ukraine","namesc": "Украине","name": "Украина","country": "UA","lat": 48.379433,"lon": 31.16558}
226;Уганда,Уганде,Угандау;{"ID": 226,"nameen": "Uganda","namesc": "Уганде","name": "Уганда","country": "UG","lat": 1.373333,"lon": 32.290275}
227;США,Соединенные Штаты Америки,Штаты,Штатах,Америка,Америку,Америке;{"ID": 227,"nameen": "United States","namesc": "США","name": "США","country": "US","lat": 37.09024,"lon": -95.712891}
228;Уругвай,Уругвае,Уругваю;{"ID": 228,"nameen": "Uruguay","namesc": "Уругвае","name": "Уругвай","country": "UY","lat": -32.522779,"lon": -55.765835}
229;Узбекистан,Узбекистане,Узбекестан,Узбекестане,Узбеуестану;{"ID": 229,"nameen": "Uzbekistan","namesc": "Узбекистан","name": "Узбекистан","country": "UZ","lat": 41.377491,"lon": 64.585262}
230;Папский Престол,Город Ватикан,Ватикане,Ватикану,Вотикан,Вотикану,Вотикане;{"ID": 230,"nameen": "Vatican City","namesc": "Ватикане","name": "Папский Престол (Государство - Город Ватикан)","country": "VA","lat": 41.902916,"lon": 12.453389}
231;Сент-Винсент и Гренадины,Сент-Винсенте и Гренадинах,Сент-Винсенту и Гренадинам,Сент-Винсенту,Гренадинам,Сент-Винсент,Гренадины,Сент-Винсенте,Гренадинах,Сент Винсенту,Сент Винсент,Сент Винсенте,Гринадинам,Сентвинсенту,Сентвинсент,Сентвинсенте;{"ID": 231,"nameen": "Saint Vincent and the Grenadines","namesc": "Сент-Винсенте и Гренадинах","name": "Сент-Винсент и Гренадины","country": "VC","lat": 12.984305,"lon": -61.287228}
232;Венесуэла Боливарианская Республика,Венесуэле,Венесуэлу;{"ID": 232,"nameen": "Venezuela","namesc": "Венесуэле","name": "Венесуэла Боливарианская Республика","country": "VE","lat": 6.42375,"lon": -66.58973}
233;Вьетнам,Вьетнаме,Вьетнаму;{"ID": 233,"nameen": "Vietnam","namesc": "Вьетнаме","name": "Вьетнам","country": "VN","lat": 14.058324,"lon": 108.277199}
234;Вануату,Вануате;{"ID": 234,"nameen": "Vanuatu","namesc": "Вануату","name": "Вануату","country": "VU","lat": -15.376706,"lon": 166.959158}
235;Уоллис и Футуна,Уоллис и Футуне;{"ID": 235,"nameen": "Wallis and Futuna","namesc": "Уоллис и Футуна","name": "Уоллис и Футуна","country": "WF","lat": -13.768752,"lon": -177.156097}
236;Самоа;{"ID": 236,"nameen": "Samoa","namesc": "Самоа","name": "Самоа","country": "WS","lat": -13.759029,"lon": -172.104629}
237;Косово;{"ID": 237,"nameen": "Kosovo","namesc": "Косово","name": "Косово","country": "XK","lat": 42.602636,"lon": 20.902977}
238;Йемен,Йемене,Йемену,Емен,Емену,Емене;{"ID": 238,"nameen": "Yemen","namesc": "Йемене","name": "Йемен","country": "YE","lat": 15.552727,"lon": 48.516388}
239;Майотта,Майотте,Майотту,Майот,Майоту,Майоте;{"ID": 239,"nameen": "Mayotte","namesc": "Майотте","name": "Майотта","country": "YT","lat": -12.8275,"lon": 45.166244}
240;Южная Африка,Южной Африке,Южную Африку,ЮАР,Южно-Африканская Республика,Южно-Африканской Республике,Южно-Африканскую Республику;{"ID": 240,"nameen": "South Africa","namesc": "ЮАР","name": "Южная Африка","country": "ZA","lat": -30.559482,"lon": 22.937506}
241;Замбия,Замбии,Замбию;{"ID": 241,"nameen": "Zambia","namesc": "Замбии","name": "Замбия","country": "ZM","lat": -13.133897,"lon": 27.849332}
242;Зимбабве;{"ID": 242,"nameen": "Zimbabwe","namesc": "Зимбабве","name": "Зимбабве","country": "ZW","lat": -19.015438,"lon": 29.154857}